STARLINK-5293           
1 55295U 23010AC  26068.69646757  .00000976  00000+0  89594-4 0  9994
2 55295  70.0001  44.5723 0003053 264.6455  95.4356 14.98333796172784
LEMUR-2-BALTO           
1 63395U 25052BH  26068.69493058  .00007621  00000+0  63456-3 0  9998
2 63395  97.6978 323.5166 0002279 359.2852   0.8367 14.98934076 53850
